XRISM                   
1 57800U 23137A   23291.81964253  .00005554  00000+0  44926-3 0  9997
2 57800  31.0022 111.7216 0010426 330.5635  29.4412 14.98277789  6276
